export type KeplerianSet = { "CCSDS_OMM_VERS": "2.0",
"COMMENT": "GENERATED VIA SPACE-TRACK.ORG API",
"CREATION_DATE": "2023-07-13T02:06:11",
"ORIGINATOR": "18 SPCS",
"OBJECT_NAME": "OBJECT A",
"OBJECT_ID": "2023-097A",
"CENTER_NAME": "EARTH",
"REF_FRAME": "TEME",
"TIME_SYSTEM": "UTC",
"MEAN_ELEMENT_THEORY": "SGP4",
"EPOCH": "2023-07-12T13:41:39.872832",
"MEAN_MOTION": "15.39613920",
"ECCENTRICITY": "0.00233480",
"INCLINATION": "97.2726",
"RA_OF_ASC_NODE": "220.4867",
"ARG_OF_PERICENTER": "294.6734",
"MEAN_ANOMALY": "233.6613",
"EPHEMERIS_TYPE": "0",
"CLASSIFICATION_TYPE": "U",
"NORAD_CAT_ID": "57319",
"ELEMENT_SET_NO": "999",
"REV_AT_EPOCH": "8",
"BSTAR": "0.00000000000000",
"MEAN_MOTION_DOT": "-0.00000085",
"MEAN_MOTION_DDOT": "0.0000000000000",
"SEMIMAJOR_AXIS": "6825.387",
"PERIOD": "93.530",
"APOAPSIS": "463.188",
"PERIAPSIS": "431.316",
"OBJECT_TYPE": "UNKNOWN",
"RCS_SIZE": null,
"COUNTRY_CODE": "PRC",
"LAUNCH_DATE": "2023-07-12",
"SITE": "JSC",
"DECAY_DATE": null,
"FILE": "3956466",
"GP_ID": "234879870",
"TLE_LINE0": "0 OBJECT A",
"TLE_LINE1": "1 57319U 23097A   23193.57060038 -.00000085  00000-0  00000+0 0  9996",
"TLE_LINE2": "2 57319  97.2726 220.4867 0023348 294.6734 233.6613 15.39613920    85" }